ONEWEB-0228             
1 48780U 21045P   24020.69071083  .00000028  00000+0  41403-4 0  9996
2 48780  87.8969  74.0545 0001916 101.2949 258.8397 13.15550663128822
